0 SL-16 DEB
1 36297U 93059M   13282.49949605  .00016405  00000-0  49104-2 0  2040
2 36297 070.9810 155.8350 0023767 302.2978 125.2147 14.42722691224218
0 SL-16 DEB
1 36297U 93059M   13283.46961659  .00015885  00000-0  47539-2 0  2053
2 36297 070.9817 153.7013 0023459 301.1674 123.4499 14.42744308224351
0 SL-16 DEB
1 36297U 93059M   13283.73449493  .00018912  00000-0  56489-2 0  2069
2 36297 070.9799 153.1200 0024072 300.5981 059.3263 14.42740524224394
0 SL-16 DEB
1 36297U 93059M   13285.83896759  .00013950  00000-0  41738-2 0  2072
2 36297 070.9831 148.4903 0022779 298.4478 188.7652 14.42800256224697
0 SL-16 DEB
1 36297U 93059M   13287.02325266  .00016207  00000-0  48420-2 0  2089
2 36297 070.9834 145.8858 0022269 297.2058 219.4981 14.42837948224869
0 SL-16 DEB
1 36297U 93059M   13287.77986860  .00026679  00000-0  79430-2 0  2094
2 36297 070.9835 144.2215 0021939 296.3008 189.2814 14.42872269224974
0 SL-16 DEB
1 36297U 93059M   13289.03283102  .00028026  00000-0  83317-2 0  2103
2 36297 070.9832 141.4651 0021444 294.6747 217.4091 14.42935928225150
0 SL-16 DEB
1 36297U 93059M   13289.79044869  .00025720  00000-0  76475-2 0  2117
2 36297 070.9828 139.7982 0021133 293.5986 192.8104 14.42955182225267
0 SL-16 DEB
1 36297U 93059M   13290.47378251  .00020901  00000-0  62200-2 0  2127
2 36297 070.9826 138.2946 0020922 292.6709 142.3541 14.42975536225368
0 SL-16 DEB
1 36297U 93059M   13291.44355171  .00017557  00000-0  52273-2 0  2134
2 36297 070.9824 136.1609 0020547 291.2344 139.9916 14.43004514225506
0 SL-16 DEB
1 36297U 93059M   13292.83616492  .00019770  00000-0  58767-2 0  2148
2 36297 070.9822 133.0965 0020414 289.2656 174.2650 14.43053194225708
0 SL-16 DEB
1 36297U 93059M   13294.02713551  .00022817  00000-0  67709-2 0  2158
2 36297 070.9823 130.4756 0020380 287.6140 241.2254 14.43095215225873
0 SL-16 DEB
1 36297U 93059M   13295.52553728  .00029987  00000-0  88726-2 0  2160
2 36297 070.9827 127.1780 0020291 285.4805 105.5941 14.43159435226097
